[
  {
    "name": "ONEWEB-0337",
    "noradId": "49203",
    "line1": "1 49203U 21083T   26177.63852368 -.00000183  00000+0 -53514-3 0  9990",
    "line2": "2 49203  87.8959 318.3514 0002061  97.1987 262.9377 13.13470084232151"
  },
  {
    "name": "ONEWEB-0338",
    "noradId": "49204",
    "line1": "1 49204U 21083U   26177.73795624  .00000020  00000+0  18314-4 0  9991",
    "line2": "2 49204  87.9185 272.5449 0001818 106.7903 253.3430 13.20774153238079"
  },
  {
    "name": "ONEWEB-0339",
    "noradId": "49205",
    "line1": "1 49205U 21083V   26177.64711667 -.00000288  00000+0 -82439-3 0  9993",
    "line2": "2 49205  87.8960 318.3423 0001800 107.5054 252.6272 13.13470813232133"
  },
  {
    "name": "ONEWEB-0340",
    "noradId": "49206",
    "line1": "1 49206U 21083W   26177.69396803  .00000045  00000+0  81499-4 0  9995",
    "line2": "2 49206  87.9179 333.5642 0001982  91.3358 268.8001 13.18686232231224"
  },
  {
    "name": "ONEWEB-0341",
    "noradId": "49207",
    "line1": "1 49207U 21083X   26177.70071125  .00000104  00000+0  23062-3 0  9992",
    "line2": "2 49207  87.9169 333.5653 0002357  98.1810 261.9590 13.18686928231242"
  },
  {
    "name": "ONEWEB-0342",
    "noradId": "49208",
    "line1": "1 49208U 21083Y   26177.29017755  .00000072  00000+0  14485-3 0  9999",
    "line2": "2 49208  87.9196 272.6230 0002011 103.3199 256.8159 13.20771106237980"
  },
  {
    "name": "ONEWEB-0343",
    "noradId": "49209",
    "line1": "1 49209U 21083Z   26177.48151527  .00000072  00000+0  14987-3 0  9994",
    "line2": "2 49209  87.9170 333.6078 0001841 107.8584 252.2749 13.18686607231266"
  },
  {
    "name": "ONEWEB-0344",
    "noradId": "49210",
    "line1": "1 49210U 21083AA  26177.64203317 -.00000240  00000+0 -69127-3 0  9994",
    "line2": "2 49210  87.8953 318.3570 0002232  99.9655 260.1726 13.13468729232136"
  },
  {
    "name": "ONEWEB-0345",
    "noradId": "49211",
    "line1": "1 49211U 21083AB  26177.63357488 -.00000037  00000+0 -13687-3 0  9997",
    "line2": "2 49211  87.8970 318.3413 0002185 100.4291 259.7085 13.13468861232143"
  },
  {
    "name": "ONEWEB-0346",
    "noradId": "49212",
    "line1": "1 49212U 21083AC  26177.70577109  .00000073  00000+0  15297-3 0  9997",
    "line2": "2 49212  87.9168 333.5630 0002087  76.5394 283.5970 13.18686642231233"
  },
  {
    "name": "ONEWEB-0348",
    "noradId": "49213",
    "line1": "1 49213U 21083AD  26177.73461727  .00000118  00000+0  25722-3 0  9993",
    "line2": "2 49213  87.9188 272.5384 0002367  90.7503 269.3902 13.20771429238072"
  },
  {
    "name": "ONEWEB-0350",
    "noradId": "49214",
    "line1": "1 49214U 21083AE  26177.65219193 -.00000243  00000+0 -70081-3 0  9992",
    "line2": "2 49214  87.8966 318.3427 0000981 121.8229 238.2995 13.13470367232175"
  },
  {
    "name": "ONEWEB-0351",
    "noradId": "49215",
    "line1": "1 49215U 21083AF  26177.72774124 -.00000051  00000+0 -15724-3 0  9991",
    "line2": "2 49215  87.9197 272.5388 0002395 120.2189 239.9181 13.20771029238032"
  },
  {
    "name": "ONEWEB-0352",
    "noradId": "49216",
    "line1": "1 49216U 21083AG  26177.62342201  .00000279  00000+0  72946-3 0  9997",
    "line2": "2 49216  87.8963 318.3537 0001878 111.3978 248.7351 13.13471203232269"
  },
  {
    "name": "ONEWEB-0354",
    "noradId": "49217",
    "line1": "1 49217U 21083AH  26177.67904804 -.00000068  00000+0 -19833-3 0  9990",
    "line2": "2 49217  87.9199 272.5471 0002362  95.3898 264.7505 13.20772628238067"
  },
  {
    "name": "ONEWEB-0355",
    "noradId": "49218",
    "line1": "1 49218U 21083AJ  26177.65234197 -.00000203  00000+0 -59061-3 0  9998",
    "line2": "2 49218  87.8958 318.3490 0002028 103.4395 256.6960 13.13470865232140"
  },
  {
    "name": "ONEWEB-0357",
    "noradId": "49219",
    "line1": "1 49219U 21083AK  26177.75143948  .00000029  00000+0  38199-4 0  9997",
    "line2": "2 49219  87.9199 272.5269 0002090 105.8097 254.3267 13.20772729238073"
  },
  {
    "name": "ONEWEB-0332",
    "noradId": "49279",
    "line1": "1 49279U 21090A   26177.73335716 -.00000068  00000+0 -21875-3 0  9992",
    "line2": "2 49279  87.8969 287.8066 0001777 105.3060 254.8266 13.14502632228837"
  },
  {
    "name": "ONEWEB-0347",
    "noradId": "49280",
    "line1": "1 49280U 21090B   26177.74135089  .00000042  00000+0  70189-4 0  9999",
    "line2": "2 49280  87.9194 272.5368 0001786 103.5895 256.5438 13.20771333232302"
  },
  {
    "name": "ONEWEB-0349",
    "noradId": "49281",
    "line1": "1 49281U 21090C   26177.54605760  .00000015  00000+0  54889-5 0  9996",
    "line2": "2 49281  87.9195 272.5762 0002032 100.2140 259.9223 13.20773496231067"
  },
  {
    "name": "ONEWEB-0353",
    "noradId": "49282",
    "line1": "1 49282U 21090D   26177.72542712 -.00000153  00000+0 -44617-3 0  9995",
    "line2": "2 49282  87.8974 287.8042 0001716 105.1678 254.9642 13.14503999228833"
  },
  {
    "name": "ONEWEB-0356",
    "noradId": "49283",
    "line1": "1 49283U 21090E   26177.69587042  .00000042  00000+0  70681-4 0  9993",
    "line2": "2 49283  87.9196 272.5397 0001740  76.8328 283.2999 13.20773991231087"
  },
  {
    "name": "ONEWEB-0358",
    "noradId": "49284",
    "line1": "1 49284U 21090F   26177.73196398  .00030987  00000+0  76106-1 0  9995",
    "line2": "2 49284  87.9195 272.5395 0001794  91.0851 269.0488 13.20605679231817"
  },
  {
    "name": "ONEWEB-0359",
    "noradId": "49285",
    "line1": "1 49285U 21090G   26177.72281009 -.00000067  00000+0 -19784-3 0  9998",
    "line2": "2 49285  87.9197 272.5345 0002276  95.6604 264.4788 13.20773667231799"
  },
  {
    "name": "ONEWEB-0360",
    "noradId": "49286",
    "line1": "1 49286U 21090H   26177.71272219 -.00000047  00000+0 -14660-3 0  9997",
    "line2": "2 49286  87.9195 272.5427 0002118 101.3207 258.8165 13.20770202231101"
  },
  {
    "name": "ONEWEB-0361",
    "noradId": "49287",
    "line1": "1 49287U 21090J   26177.69420809 -.00000027  00000+0 -97478-4 0  9992",
    "line2": "2 49287  87.9194 272.5445 0002078  96.8498 263.2871 13.20771319231559"
  },
  {
    "name": "ONEWEB-0362",
    "noradId": "49288",
    "line1": "1 49288U 21090K   26177.73014723  .00000056  00000+0  10853-3 0  9993",
    "line2": "2 49288  87.9179 303.0768 0002096 106.7260 253.4103 13.19725414228175"
  },
  {
    "name": "ONEWEB-0363",
    "noradId": "49289",
    "line1": "1 49289U 21090L   26177.70935977 -.00000045  00000+0 -14145-3 0  9992",
    "line2": "2 49289  87.9196 272.5419 0001912  90.4987 269.6365 13.20771086231563"
  },
  {
    "name": "ONEWEB-0364",
    "noradId": "49290",
    "line1": "1 49290U 21090M   26177.52080757  .00000134  00000+0  29782-3 0  9991",
    "line2": "2 49290  87.9196 272.5874 0002086 100.2615 259.8754 13.20772409232677"
  },
  {
    "name": "ONEWEB-0365",
    "noradId": "49291",
    "line1": "1 49291U 21090N   26177.73962655 -.00000019  00000+0 -79670-4 0  9997",
    "line2": "2 49291  87.9187 303.0643 0001898 102.1302 258.0043 13.19725413227684"
  },
  {
    "name": "ONEWEB-0366",
    "noradId": "49292",
    "line1": "1 49292U 21090P   26177.72225722 -.00000208  00000+0 -59425-3 0  9999",
    "line2": "2 49292  87.8970 287.8064 0001991 100.3693 259.7661 13.14503486228816"
  },
  {
    "name": "ONEWEB-0367",
    "noradId": "49293",
    "line1": "1 49293U 21090Q   26177.32974174  .00000043  00000+0  73127-4 0  9999",
    "line2": "2 49293  87.9192 272.6193 0001991 103.0414 257.0942 13.20772197231035"
  },
  {
    "name": "ONEWEB-0368",
    "noradId": "49294",
    "line1": "1 49294U 21090R   26177.68242560  .00000159  00000+0  35793-3 0  9990",
    "line2": "2 49294  87.9190 272.5579 0001111  87.5987 272.5274 13.20769993232239"
  },
  {
    "name": "ONEWEB-0369",
    "noradId": "49295",
    "line1": "1 49295U 21090S   26177.58325593  .00000057  00000+0  10988-3 0  9994",
    "line2": "2 49295  87.9177 303.1021 0001819 100.9558 259.1779 13.19725867227658"
  },
  {
    "name": "ONEWEB-0370",
    "noradId": "49296",
    "line1": "1 49296U 21090T   26177.71777919 -.00000101  00000+0 -28110-3 0  9991",
    "line2": "2 49296  87.9195 272.5411 0002260 101.5794 258.5593 13.20770915231121"
  },
  {
    "name": "ONEWEB-0371",
    "noradId": "49297",
    "line1": "1 49297U 21090U   26177.59113493  .00000098  00000+0  21257-3 0  9997",
    "line2": "2 49297  87.9185 303.0937 0001931 102.1957 257.9392 13.19724880227691"
  },
  {
    "name": "ONEWEB-0372",
    "noradId": "49298",
    "line1": "1 49298U 21090V   26177.70753580  .00000003  00000+0 -24700-4 0  9992",
    "line2": "2 49298  87.9197 272.5448 0001979 100.9523 259.1833 13.20772714231093"
  },
  {
    "name": "ONEWEB-0373",
    "noradId": "49299",
    "line1": "1 49299U 21090W   26177.73292931 -.00000040  00000+0 -13143-3 0  9994",
    "line2": "2 49299  87.9193 272.5400 0002082  98.0014 262.1356 13.20772254232281"
  },
  {
    "name": "ONEWEB-0374",
    "noradId": "49300",
    "line1": "1 49300U 21090X   26177.70956601 -.00000185  00000+0 -53469-3 0  9990",
    "line2": "2 49300  87.8977 287.8002 0001637  73.8942 286.2368 13.14505435228818"
  },
  {
    "name": "ONEWEB-0375",
    "noradId": "49301",
    "line1": "1 49301U 21090Y   26177.72114660  .00000090  00000+0  19058-3 0  9993",
    "line2": "2 49301  87.9196 272.5339 0002104  83.8336 276.3037 13.20773450231789"
  },
  {
    "name": "ONEWEB-0376",
    "noradId": "49302",
    "line1": "1 49302U 21090Z   26177.58956681  .00000130  00000+0  29298-3 0  9997",
    "line2": "2 49302  87.9185 303.0939 0001774 105.1569 254.9760 13.19726131227694"
  },
  {
    "name": "ONEWEB-0377",
    "noradId": "49303",
    "line1": "1 49303U 21090AA  26177.70780606 -.00000038  00000+0 -12476-3 0  9993",
    "line2": "2 49303  87.9196 272.5386 0002131  94.7730 265.3646 13.20772355231778"
  },
  {
    "name": "ONEWEB-0378",
    "noradId": "49304",
    "line1": "1 49304U 21090AB  26177.72802022 -.00000019  00000+0 -78268-4 0  9994",
    "line2": "2 49304  87.9190 272.5394 0001953  96.0276 264.1080 13.20770847231046"
  }
]